{"type":"Feature","geometry":{"type":"Point","coordinates":[37.3949253,55.6881015]},"properties":{"amenity":"townhall","description":"Администрация городского поселения Заречье","name":"Администрация","website":"https://zarechye.org/"}},
{"type":"Feature","geometry":{"type":"Point","coordinates":[37.7570785,55.5864629]},"properties":{"amenity":"townhall","name":"Администрация муниципального округа \"Развилковское\""}},
{"type":"Feature","geometry":{"type":"Point","coordinates":[37.3627264,55.7049484]},"properties":{"amenity":"townhall","name":"Администрация п. Новоивановское","website":"http://novadm.ru/"}},
{"type":"Feature","geometry":{"type":"Point","coordinates":[37.7354689,55.9102816]},"properties":{"amenity":"townhall","name":"Администрация г. Мытищи","website":"https://mytyshi.ru/"}},
{"type":"Feature","geometry":{"type":"Point","coordinates":[37.5073611,55.6735737]},"properties":{"amenity":"townhall","contact:website":"http://www.mo-pv.ru","name":"Муниципалитет муниципального округа Проспект Вернадского"}},
{"type":"Feature","geometry":{"type":"Point","coordinates":[37.809384,55.7212664]},"properties":{"addr:city":"Москва","addr:country":"RU","addr:housenumber":"7А","addr:street":"улица Красный Казанец","amenity":"townhall","name":"ГЛРР","opening_hours":"Tu,Th 10:00-13:00,14:00-18:00","phone":"+7 499 3740481"}},
{"type":"Feature","geometry":{"type":"Point","coordinates":[37.5970953,55.8877919]},"properties":{"amenity":"townhall","name":"Муниципалитет внутригородского муниципального образования Бибирево в городе Москва","website":"http://bibirevo-mo.ru/"}},
{"type":"Feature","geometry":{"type":"Point","coordinates":[37.6614516,55.7366942]},"properties":{"amenity":"townhall","contact:email":"prefcao@cao.mos.ru","contact:fax":"+7 495 9110236","contact:phone":"+7 495 7772800","contact:website":"http://cao.mos.ru","name":"Префектура ЦАО"}},
{"type":"Feature","geometry":{"type":"Point","coordinates":[37.8678627,55.6591678]},"properties":{"amenity":"townhall","name":"Администрация"}},
{"type":"Feature","geometry":{"type":"Point","coordinates":[37.8507763,55.6256723]},"properties":{"amenity":"townhall"}},
{"type":"Feature","geometry":{"type":"Point","coordinates":[37.3948351,55.8620611]},"properties":{"amenity":"townhall","name":"Территориальное управление Отрадненское администрации городского округа Красногорск","office":"government"}},
{"type":"Feature","geometry":{"type":"Point","coordinates":[37.4980182,55.6945732]},"properties":{"amenity":"townhall"}},
{"type":"Feature","geometry":{"type":"Point","coordinates":[37.464548,55.5731812]},"properties":{"addr:housenumber":"4","addr:street":"улица Сосенский Стан","amenity":"townhall","contact:phone":"+7 499 6526116","contact:website":"https://tinao.mos.ru/","name":"Префектура Троицкого и Новомосковского административных округов города Москвы"}},
{"type":"Feature","geometry":{"type":"Point","coordinates":[37.7651975,55.7295543]},"properties":{"amenity":"townhall","name":"Управа района \"Рязанский\""}},
{"type":"Feature","geometry":{"type":"Point","coordinates":[37.4347,55.84515]},"properties":{"alt_name":"Аппарат Совета депутатов муниципального округа Южное Тушино","amenity":"townhall","check_date":"2022-10-23","contact:website":"http://yutushino.ru","name":"Совет депутатов муниципального округа Южное Тушино"}},
{"type":"Feature","geometry":{"type":"MultiPolygon","coordinates":[[[[37.6078253,55.7612545],[37.607968,55.761127],[37.6080169,55.7611443],[37.6082109,55.7609709],[37.6081653,55.7609547],[37.6083019,55.7608326],[37.6083829,55.7608613],[37.6084188,55.7608292],[37.6085889,55.7608894],[37.6085539,55.7609207],[37.6089193,55.7610501],[37.6094515,55.7612386],[37.6093225,55.761354],[37.6093455,55.7613621],[37.6092922,55.7614097],[37.6092369,55.7614592],[37.6091824,55.7615079],[37.6091286,55.761556],[37.6091055,55.7615478],[37.6089772,55.7616625],[37.608445,55.761474],[37.6078253,55.7612545]],[[37.6082981,55.7612418],[37.6083633,55.7612649],[37.6083283,55.7612962],[37.6085543,55.7613761],[37.6087667,55.7614512],[37.6090221,55.7612226],[37.60881,55.7611476],[37.6085836,55.7610675],[37.608554,55.761094],[37.6084889,55.761071],[37.6082981,55.7612418]]]]},"properties":{"addr:city":"Москва","addr:country":"RU","addr:housenumber":"13","addr:postcode":"125009","addr:street":"Тверская улица","alt_name":"Мэрия Москвы","amenity":"townhall","building":"office","building:colour":"violet","building:levels":"5","contact:phone":"+7 495 6335190","contact:website":"http://www.mos.ru","name":"Правительство Москвы","name:de":"Moskauer Stadtregierung","name:en":"Moscow City Government","name:ml":"മോസ്കോ നഗര ഭരണകൂടം","office":"government","roof:colour":"cadetblue","roof:material":"metal","roof:shape":"hipped"}},
{"type":"Feature","geometry":{"type":"LineString","coordinates":[[37.562429,55.8165832],[37.5627015,55.8162337],[37.5631132,55.816335],[37.5630778,55.8163805],[37.5631548,55.8163994],[37.5633817,55.8164553],[37.5631852,55.8167073],[37.5628773,55.8166315],[37.5628367,55.8166836],[37.562429,55.8165832]]},"properties":{"addr:city":"Москва","addr:country":"RU","addr:housenumber":"27","addr:postcode":"127238","addr:street":"Тимирязевская улица","amenity":"townhall","building":"civic","building:colour":"beige;lightgrey","building:material":"porcelain_stoneware","contact:phone":"+7 495 7772801","contact:website":"http://sao.mos.ru","name":"Префектура Северного Административного округа г.Москвы","roof:colour":"grey","roof:material":"tar_paper","roof:shape":"flat"}},
{"type":"Feature","geometry":{"type":"MultiPolygon","coordinates":[[[[37.562429,55.8165832],[37.5627015,55.8162337],[37.5631132,55.816335],[37.5630778,55.8163805],[37.5631548,55.8163994],[37.5633817,55.8164553],[37.5631852,55.8167073],[37.5628773,55.8166315],[37.5628367,55.8166836],[37.562429,55.8165832]]]]},"properties":{"addr:city":"Москва","addr:country":"RU","addr:housenumber":"27","addr:postcode":"127238","addr:street":"Тимирязевская улица","amenity":"townhall","building":"civic","building:colour":"beige;lightgrey","building:material":"porcelain_stoneware","contact:phone":"+7 495 7772801","contact:website":"http://sao.mos.ru","name":"Префектура Северного Административного округа г.Москвы","roof:colour":"grey","roof:material":"tar_paper","roof:shape":"flat"}},
{"type":"Feature","geometry":{"type":"LineString","coordinates":[[37.8084594,55.9196164],[37.8085632,55.9196102],[37.8092346,55.9195704],[37.8092554,55.9196806],[37.808695,55.9197139],[37.8087097,55.9197917],[37.808495,55.9198044],[37.8084594,55.9196164]]},"properties":{"addr:housenumber":"1","addr:street":"Октябрьская улица","amenity":"townhall","building":"yes","building:levels":"3","name":"Администрация города","roof:material":"metal","roof:shape":"hipped"}},
{"type":"Feature","geometry":{"type":"LineString","coordinates":[[37.6099082,55.6062172],[37.6102386,55.6061602],[37.610147,55.6059909],[37.6102994,55.6059645],[37.6103854,55.6061234],[37.610718,55.6060659],[37.6106299,55.6059032],[37.610785,55.6058764],[37.6109521,55.6061852],[37.6107867,55.6062138],[37.6107285,55.6061061],[37.6106578,55.6061183],[37.6106829,55.6061647],[37.6100417,55.6062754],[37.6100199,55.6062351],[37.6099221,55.606252],[37.6099805,55.6063599],[37.6098309,55.6063857],[37.6096693,55.6060872],[37.6098234,55.6060606],[37.6099082,55.6062172]]},"properties":{"addr:housenumber":"4А","addr:street":"улица Подольских Курсантов","amenity":"townhall","building":"government","description":"Управа района Чертаново Южное"}},
{"type":"Feature","geometry":{"type":"MultiPolygon","coordinates":[[[[37.8084594,55.9196164],[37.8085632,55.9196102],[37.8092346,55.9195704],[37.8092554,55.9196806],[37.808695,55.9197139],[37.8087097,55.9197917],[37.808495,55.9198044],[37.8084594,55.9196164]]]]},"properties":{"addr:housenumber":"1","addr:street":"Октябрьская улица","amenity":"townhall","building":"yes","building:levels":"3","name":"Администрация города","roof:material":"metal","roof:shape":"hipped"}},
{"type":"Feature","geometry":{"type":"MultiPolygon","coordinates":[[[[37.6096693,55.6060872],[37.6098234,55.6060606],[37.6099082,55.6062172],[37.6102386,55.6061602],[37.610147,55.6059909],[37.6102994,55.6059645],[37.6103854,55.6061234],[37.610718,55.6060659],[37.6106299,55.6059032],[37.610785,55.6058764],[37.6109521,55.6061852],[37.6107867,55.6062138],[37.6107285,55.6061061],[37.6106578,55.6061183],[37.6106829,55.6061647],[37.6100417,55.6062754],[37.6100199,55.6062351],[37.6099221,55.606252],[37.6099805,55.6063599],[37.6098309,55.6063857],[37.6096693,55.6060872]]]]},"properties":{"addr:housenumber":"4А","addr:street":"улица Подольских Курсантов","amenity":"townhall","building":"government","description":"Управа района Чертаново Южное"}},
{"type":"Feature","geometry":{"type":"MultiPolygon","coordinates":[[[[37.4451511,55.8889685],[37.4453805,55.8888701],[37.4455842,55.8890194],[37.445649,55.8889916],[37.4457278,55.8890494],[37.4456629,55.8890772],[37.4458585,55.8892205],[37.445627,55.8893198],[37.4455567,55.8892679],[37.4455908,55.8892533],[37.4455362,55.8892132],[37.4455039,55.8892271],[37.4453922,55.8891452],[37.4452843,55.8890661],[37.4453166,55.8890522],[37.445262,55.8890123],[37.4452297,55.8890261],[37.4451511,55.8889685]]],[[[37.447969,55.8876452],[37.4482145,55.8875439],[37.4484687,55.8874389],[37.448719,55.8876296],[37.4485968,55.88768],[37.4484846,55.8875946],[37.4482217,55.8877032],[37.4483338,55.8877886],[37.4482204,55.8878367],[37.447969,55.8876452]]]]},"properties":{"amenity":"townhall","full_name":"Администрация городского округа Химки","name":"Администрация г. Химки"}},
{"type":"Feature","geometry":{"type":"LineString","coordinates":[[37.4511372,55.8290717],[37.4514226,55.8290544],[37.4514273,55.8290784],[37.4514621,55.8292597],[37.4515317,55.8292555],[37.4515572,55.829388],[37.4514876,55.8293922],[37.4515197,55.8295595],[37.4512343,55.8295768],[37.4511974,55.8293845],[37.4511864,55.8293273],[37.4511419,55.8290957],[37.4511372,55.8290717]]},"properties":{"addr:city":"Москва","addr:country":"RU","addr:housenumber":"13/2 с1А","addr:postcode":"125362","addr:street":"улица Свободы","amenity":"townhall","building":"public","building:colour":"beige;grey","building:levels":"6","building:material":"plaster","contact:email":"szao@szao.mos.ru","contact:fax":"+7 495 4904463","contact:phone":"+7 495 7772808;С 18.00 - 8.00 и по выходным дням на ваши вопросы ответит дежурный по телефону: +7 495 4904438","contact:website":"http://szao.mos.ru","name":"Префектура СЗАО","roof:angle":"30","roof:colour":"grey","roof:material":"metal","roof:shape":"gabled"}},
{"type":"Feature","geometry":{"type":"MultiPolygon","coordinates":[[[[37.4511372,55.8290717],[37.4514226,55.8290544],[37.4514273,55.8290784],[37.4514621,55.8292597],[37.4515317,55.8292555],[37.4515572,55.829388],[37.4514876,55.8293922],[37.4515197,55.8295595],[37.4512343,55.8295768],[37.4511974,55.8293845],[37.4511864,55.8293273],[37.4511419,55.8290957],[37.4511372,55.8290717]]]]},"properties":{"addr:city":"Москва","addr:country":"RU","addr:housenumber":"13/2 с1А","addr:postcode":"125362","addr:street":"улица Свободы","amenity":"townhall","building":"public","building:colour":"beige;grey","building:levels":"6","building:material":"plaster","contact:email":"szao@szao.mos.ru","contact:fax":"+7 495 4904463","contact:phone":"+7 495 7772808;С 18.00 - 8.00 и по выходным дням на ваши вопросы ответит дежурный по телефону: +7 495 4904438","contact:website":"http://szao.mos.ru","name":"Префектура СЗАО","roof:angle":"30","roof:colour":"grey","roof:material":"metal","roof:shape":"gabled"}},
{"type":"Feature","geometry":{"type":"LineString","coordinates":[[37.8545328,55.7610986],[37.8548518,55.7610599],[37.8547257,55.7607309],[37.8545766,55.760342],[37.854353,55.7603691],[37.8544971,55.760745],[37.8543487,55.760763],[37.8543091,55.7607678],[37.8543355,55.7608366],[37.8543717,55.7608322],[37.8545144,55.7608149],[37.8545827,55.760993],[37.8544963,55.7610035],[37.8545328,55.7610986]]},"properties":{"addr:city":"Реутов","addr:housenumber":"27","addr:street":"улица Ленина","amenity":"townhall","building":"yes","building:levels":"4","name":"Администрация"}},
{"type":"Feature","geometry":{"type":"MultiPolygon","coordinates":[[[[37.8543091,55.7607678],[37.8543487,55.760763],[37.8544971,55.760745],[37.854353,55.7603691],[37.8545766,55.760342],[37.8547257,55.7607309],[37.8548518,55.7610599],[37.8545328,55.7610986],[37.8544963,55.7610035],[37.8545827,55.760993],[37.8545144,55.7608149],[37.8543717,55.7608322],[37.8543355,55.7608366],[37.8543091,55.7607678]]]]},"properties":{"addr:city":"Реутов","addr:housenumber":"27","addr:street":"улица Ленина","amenity":"townhall","building":"yes","building:levels":"4","name":"Администрация"}},
{"type":"Feature","geometry":{"type":"MultiPolygon","coordinates":[[[[37.4421789,55.7278392],[37.442518,55.7278362],[37.4425162,55.7277729],[37.4426222,55.727772],[37.442624,55.7278353],[37.4433763,55.7278287],[37.443387800000007,55.7282443],[37.4421904,55.7282548],[37.4421789,55.7278392]],[[37.4426764,55.7279522],[37.4426859,55.7281794],[37.4431965,55.7281726],[37.443187,55.7279454],[37.4426764,55.7279522]]]]},"properties":{"addr:city":"Москва","addr:housenumber":"12","addr:street":"улица Ивана Франко","amenity":"townhall","building":"yes","name":"Префектура ЗАО","website":"https://www.zao.mos.ru/"}},
{"type":"Feature","geometry":{"type":"LineString","coordinates":[[37.6543107,55.7060147],[37.6543561,55.7059808],[37.6543789,55.7059403],[37.6543766,55.7058979],[37.6543494,55.7058583],[37.654372,55.7058441],[37.6543344,55.7058239],[37.6542968,55.7058037],[37.6542749,55.7058157],[37.6541997,55.7057991],[37.6541191,55.7057987],[37.6540434,55.7058144],[37.6539825,55.7058443],[37.6536673,55.7056794],[37.6534924,55.7057857],[37.6538785,55.7059873],[37.6538181,55.706024],[37.6539886,55.7061131],[37.6540512,55.7060751],[37.6544684,55.706293],[37.6546417,55.7061877],[37.6543107,55.7060147]]},"properties":{"addr:city":"Москва","addr:housenumber":"10","addr:postcode":"115280","addr:street":"Автозаводская улица","amenity":"townhall","building":"office","building:colour":"beige;white","building:levels":"3","building:material":"plaster","contact:email":"PrefectureUAO@mos.ru","contact:fax":"+7 495 7516858","contact:phone":"+7 495 7772805","contact:website":"http://uao.mos.ru","name":"Префектура ЮАО","roof:angle":"30","roof:colour":"green","roof:material":"metal","roof:shape":"hipped"}},
{"type":"Feature","geometry":{"type":"LineString","coordinates":[[37.8659563,55.8164353],[37.8662298,55.8160743],[37.8664488,55.8161267],[37.8661754,55.8164877],[37.8659563,55.8164353]]},"properties":{"addr:city":"Москва","addr:housenumber":"12А","addr:postcode":"105173","addr:street":"улица 9 Мая","amenity":"townhall","building":"yes","name":"Администрация района Восточный"}},
{"type":"Feature","geometry":{"type":"MultiPolygon","coordinates":[[[[37.6534924,55.7057857],[37.6536673,55.7056794],[37.6539825,55.7058443],[37.6540434,55.7058144],[37.6541191,55.7057987],[37.6541997,55.7057991],[37.6542749,55.7058157],[37.6542968,55.7058037],[37.6543344,55.7058239],[37.654372,55.7058441],[37.6543494,55.7058583],[37.6543766,55.7058979],[37.6543789,55.7059403],[37.6543561,55.7059808],[37.6543107,55.7060147],[37.6546417,55.7061877],[37.6544684,55.706293],[37.6540512,55.7060751],[37.6539886,55.7061131],[37.6538181,55.706024],[37.6538785,55.7059873],[37.6534924,55.7057857]]]]},"properties":{"addr:city":"Москва","addr:housenumber":"10","addr:postcode":"115280","addr:street":"Автозаводская улица","amenity":"townhall","building":"office","building:colour":"beige;white","building:levels":"3","building:material":"plaster","contact:email":"PrefectureUAO@mos.ru","contact:fax":"+7 495 7516858","contact:phone":"+7 495 7772805","contact:website":"http://uao.mos.ru","name":"Префектура ЮАО","roof:angle":"30","roof:colour":"green","roof:material":"metal","roof:shape":"hipped"}},
{"type":"Feature","geometry":{"type":"MultiPolygon","coordinates":[[[[37.8659563,55.8164353],[37.8662298,55.8160743],[37.8664488,55.8161267],[37.8661754,55.8164877],[37.8659563,55.8164353]]]]},"properties":{"addr:city":"Москва","addr:housenumber":"12А","addr:postcode":"105173","addr:street":"улица 9 Мая","amenity":"townhall","building":"yes","name":"Администрация района Восточный"}},
{"type":"Feature","geometry":{"type":"MultiPolygon","coordinates":[[[[37.6331345,55.7759138],[37.6338959,55.7758914],[37.6339455,55.7764241],[37.6331841,55.7764465],[37.6331345,55.7759138]],[[37.6333425,55.7760432],[37.6333522,55.7761867],[37.6334917,55.7761839],[37.6334882,55.7761174],[37.6335783,55.776117],[37.6335793,55.7761819],[37.6337066,55.7761791],[37.6336969,55.7760356],[37.6333425,55.7760432]]]]},"properties":{"addr:housenumber":"18","addr:postcode":"129090","addr:street":"проспект Мира","amenity":"townhall","building":"civic","building:colour":"white","building:material":"cement_block","contact:email":"prefectura@svao.mos.ru","contact:phone":"+7 495 7772802","contact:website":"http://svao.mos.ru","name":"Префектура СВАО Москвы","official_name":"Префектура Северо-Восточного Административного Округа города Москвы","roof:colour":"grey","roof:material":"tar_paper","roof:shape":"flat"}},
{"type":"Feature","geometry":{"type":"MultiPolygon","coordinates":[[[[37.5749741,55.6627799],[37.5752392,55.6626886],[37.5754217,55.6628572],[37.5756851,55.6627802],[37.5754606,55.6625638],[37.5757264,55.662467],[37.5758791,55.6626159],[37.5760013,55.6626047],[37.5760887,55.6626535],[37.5761743,55.6627345],[37.5762427,55.6628228],[37.5761591,55.6628936],[37.5763065,55.6630354],[37.5758159,55.6631977],[37.575532,55.6632954],[37.5749741,55.6627799]],[[37.5755738,55.6629527],[37.5757389,55.6631057],[37.5759286,55.6630406],[37.5757635,55.6628876],[37.5755738,55.6629527]]]]},"properties":{"addr:housenumber":"28 к4","addr:street":"Севастопольский проспект","amenity":"townhall","building":"yes","building:levels":"4","name":"Префектура ЮЗАО"}},
{"type":"Feature","geometry":{"type":"LineString","coordinates":[[37.3470219,55.601966],[37.347254,55.6020366],[37.347492,55.602109],[37.3476346,55.6019594],[37.3471645,55.6018164],[37.3470219,55.601966]]},"properties":{"addr:housenumber":"19А","addr:place":"1-й микрорайон","amenity":"townhall","building":"yes","building:colour":"beige","building:levels":"2","name":"Администрация","roof:colour":"grey","roof:material":"tar_paper","roof:shape":"flat","source":"Moskovskiy map. http://www.dukess.ru"}},
{"type":"Feature","geometry":{"type":"MultiPolygon","coordinates":[[[[37.3470219,55.601966],[37.3471645,55.6018164],[37.3476346,55.6019594],[37.347492,55.602109],[37.347254,55.6020366],[37.3470219,55.601966]]]]},"properties":{"addr:housenumber":"19А","addr:place":"1-й микрорайон","amenity":"townhall","building":"yes","building:colour":"beige","building:levels":"2","name":"Администрация","roof:colour":"grey","roof:material":"tar_paper","roof:shape":"flat","source":"Moskovskiy map. http://www.dukess.ru"}},
{"type":"Feature","geometry":{"type":"LineString","coordinates":[[37.5608797,55.8115719],[37.5614537,55.8117353],[37.5615791,55.8115961],[37.561005,55.8114328],[37.5608797,55.8115719]]},"properties":{"addr:city":"Москва","addr:country":"RU","addr:housenumber":"4","addr:street":"Астрадамский проезд","amenity":"townhall","building":"townhall","name":"Муниципалитет Тимирязевский"}},
{"type":"Feature","geometry":{"type":"MultiPolygon","coordinates":[[[[37.5608797,55.8115719],[37.561005,55.8114328],[37.5615791,55.8115961],[37.5614537,55.8117353],[37.5608797,55.8115719]]]]},"properties":{"addr:city":"Москва","addr:country":"RU","addr:housenumber":"4","addr:street":"Астрадамский проезд","amenity":"townhall","building":"townhall","name":"Муниципалитет Тимирязевский"}},
{"type":"Feature","geometry":{"type":"LineString","coordinates":[[37.7657944,55.6377513],[37.7652414,55.6383818],[37.7669702,55.6388649],[37.7675232,55.6382344],[37.7657944,55.6377513]]},"properties":{"amenity":"townhall","barrier":"fence","name":"Управа района Братеево"}},
{"type":"Feature","geometry":{"type":"MultiPolygon","coordinates":[[[[37.7652414,55.6383818],[37.7657944,55.6377513],[37.7675232,55.6382344],[37.7669702,55.6388649],[37.7652414,55.6383818]]]]},"properties":{"amenity":"townhall","barrier":"fence","name":"Управа района Братеево"}},
{"type":"Feature","geometry":{"type":"LineString","coordinates":[[37.8725617,55.6593651],[37.8727611,55.6592565],[37.8720577,55.6588454],[37.8718583,55.658954],[37.8725617,55.6593651]]},"properties":{"addr:housenumber":"5","addr:street":"Железнодорожная улица","amenity":"townhall","building":"yes","name":"Администрация г. Котельники"}},
{"type":"Feature","geometry":{"type":"MultiPolygon","coordinates":[[[[37.8718583,55.658954],[37.8720577,55.6588454],[37.8727611,55.6592565],[37.8725617,55.6593651],[37.8718583,55.658954]]]]},"properties":{"addr:housenumber":"5","addr:street":"Железнодорожная улица","amenity":"townhall","building":"yes","name":"Администрация г. Котельники"}},
{"type":"Feature","geometry":{"type":"LineString","coordinates":[[37.3531503,55.5766038],[37.3532636,55.5764875],[37.3530658,55.5764259],[37.3529525,55.5765421],[37.3531503,55.5766038]]},"properties":{"addr:city":"Верхнее Валуево","addr:full":"142780, Россия, Московская область, Ленинский район, дер. Верхнее Валуево, дом 60","addr:housenumber":"60","addr:place":"Верхнее Валуево","addr:region":"Москва","amenity":"townhall","building":"yes","name":"Администрация муниципального образования сельское поселение Филимонковское Ленинского муниципального района Московской области","office":"government","phone":"+7 495 4364138","website":"http://adm-filimonkovskoe.ru/"}},
{"type":"Feature","geometry":{"type":"MultiPolygon","coordinates":[[[[37.3529525,55.5765421],[37.3530658,55.5764259],[37.3532636,55.5764875],[37.3531503,55.5766038],[37.3529525,55.5765421]]]]},"properties":{"addr:city":"Верхнее Валуево","addr:full":"142780, Россия, Московская область, Ленинский район, дер. Верхнее Валуево, дом 60","addr:housenumber":"60","addr:place":"Верхнее Валуево","addr:region":"Москва","amenity":"townhall","building":"yes","name":"Администрация муниципального образования сельское поселение Филимонковское Ленинского муниципального района Московской области","office":"government","phone":"+7 495 4364138","website":"http://adm-filimonkovskoe.ru/"}},
{"type":"Feature","geometry":{"type":"LineString","coordinates":[[37.7893803,55.7901268],[37.789997,55.7901403],[37.7899878,55.790273],[37.7893711,55.7902595],[37.7893803,55.7901268]]},"properties":{"addr:housenumber":"25","addr:street":"Заводской проезд","amenity":"townhall","building":"yes","building:levels":"3","name":"Муниципалитет района Измайлово"}},
{"type":"Feature","geometry":{"type":"MultiPolygon","coordinates":[[[[37.7893711,55.7902595],[37.7893803,55.7901268],[37.789997,55.7901403],[37.7899878,55.790273],[37.7893711,55.7902595]]]]},"properties":{"addr:housenumber":"25","addr:street":"Заводской проезд","amenity":"townhall","building":"yes","building:levels":"3","name":"Муниципалитет района Измайлово"}},
{"type":"Feature","geometry":{"type":"LineString","coordinates":[[37.7085781,55.7970461],[37.7091012,55.7970813],[37.7091034,55.7970609],[37.7096517,55.7971006],[37.709698,55.7968723],[37.7095506,55.7968615],[37.7095642,55.7968042],[37.7091022,55.7967703],[37.7086433,55.7967395],[37.7085781,55.7970461]]},"properties":{"addr:housenumber":"9","addr:street":"Преображенская площадь","amenity":"townhall","building":"public","building:colour":"brown","building:levels":"8","building:material":"porcelain_stoneware","contact:phone":"+7 495 7772803","contact:website":"http://vao.mos.ru","name":"Префектура Восточного административного округа","office":"government","roof:colour":"grey","roof:material":"tar_paper","roof:shape":"flat"}},
{"type":"Feature","geometry":{"type":"MultiPolygon","coordinates":[[[[37.7085781,55.7970461],[37.7086433,55.7967395],[37.7091022,55.7967703],[37.7095642,55.7968042],[37.7095506,55.7968615],[37.709698,55.7968723],[37.7096517,55.7971006],[37.7091034,55.7970609],[37.7091012,55.7970813],[37.7085781,55.7970461]]]]},"properties":{"addr:housenumber":"9","addr:street":"Преображенская площадь","amenity":"townhall","building":"public","building:colour":"brown","building:levels":"8","building:material":"porcelain_stoneware","contact:phone":"+7 495 7772803","contact:website":"http://vao.mos.ru","name":"Префектура Восточного административного округа","office":"government","roof:colour":"grey","roof:material":"tar_paper","roof:shape":"flat"}},
{"type":"Feature","geometry":{"type":"LineString","coordinates":[[37.8574447,55.6582676],[37.8578697,55.6582017],[37.8578043,55.6580594],[37.8573794,55.6581279],[37.8574447,55.6582676]]},"properties":{"addr:city":"Котельники","addr:housenumber":"5/4","addr:street":"Дзержинское шоссе","amenity":"townhall","building":"yes","name":"Администрация ГО Котельники"}},
{"type":"Feature","geometry":{"type":"MultiPolygon","coordinates":[[[[37.8573794,55.6581279],[37.8578043,55.6580594],[37.8578697,55.6582017],[37.8574447,55.6582676],[37.8573794,55.6581279]]]]},"properties":{"addr:city":"Котельники","addr:housenumber":"5/4","addr:street":"Дзержинское шоссе","amenity":"townhall","building":"yes","name":"Администрация ГО Котельники"}},
{"type":"Feature","geometry":{"type":"MultiPolygon","coordinates":[[[[37.5761886,55.7541036],[37.5762871,55.7540072],[37.5771451,55.7531677],[37.5774356,55.7529084],[37.5783515,55.7529088],[37.5783494,55.7530352],[37.5772664,55.7540698],[37.5779656,55.7543055],[37.5779251,55.7543491],[37.5776715,55.7543507],[37.5776638,55.754633],[37.5774722,55.7545642],[37.5761886,55.7541036]]]]},"properties":{"addr:housenumber":"36/9","addr:street":"улица Новый Арбат","amenity":"townhall","architect":"Посохин, Михаил Васильевич","building":"office","building:architecture":"international","name":"Правительство Москвы","name:de":"Moskauer Stadtverwaltung","name:ru":"Правительство Москвы","old_name":"Здание Совета экономической взаимопомощи","start_date":"1963..1970","wikipedia":"ru:Здание СЭВ"}},
